#dP2022  7 15  0  0  0.00000000      97 __u+U IGS14 FIT  IAC
## 2218 432000.00000000   900.00000000 59775 0.0000000000000
+  115   C06C07C08C09C10C11C12C13C14C16C19C20C21C22C23C24C25
+        C26C27C28C29C30C32C33C34C35C36C37C38C39C40C41C42C43
+        C44C45C46E01E02E03E04E05E07E08E09E10E11E12E13E14E15
+        E18E19E21E24E25E26E27E30E31E33E34E36G01G03G04G05G06
+        G07G08G09G10G11G12G13G14G15G16G17G18G19G20G21G22G23
+        G24G25G26G27G28G29G30G31G32J02J03R01R02R03R04R05R07
+        R08R09R11R12R13R14R15R17R18R19R20R21R24  0  0  0  0
++         7  7  7  7  7  7  6  7  7  7  6  5  6  5  6  5  6
++         6  6  6  6  6  5  6  6  5  6  6  6  6  6  6  6  6
++         6  6  6  4  4  4  4  4  5  5  4  5  4  4  5  4  4
++         5  4  4  4  4  4  4  4  4  4  4  4  3  3  3  3  3
++         4  4  3  3  3  3  4  3  3  4  3  3  4  4  3  3  3
++         3  3  3  3  4  4  3  4  3  9  9  7  6  6  6  6  6
++         6  6  6  6  7  6  6  6  8  7  7  6  6  0  0  0  0
%c M  cc GPS ccc cccc cccc cccc cccc ccccc ccccc ccccc ccccc
%c cc cc ccc ccc cccc cccc cccc cccc ccccc ccccc ccccc ccccc
%f  1.2500000  1.025000000  0.00000000000  0.000000000000000
%f  0.0000000  0.000000000  0.00000000000  0.000000000000000
%i    0    0    0    0      0      0      0      0         0
%i    0    0    0    0      0      0      0      0         0
/* INFORMATION & ANALYSIS CENTER (IAC)            FINAL DATA
/* S/V CLOCKS ARE ALIGNED TO GNSS TIME                      
/* G:C1WC2W R:C1PC2P E:C1XC5X C:C2IC6I J:C1CC2S             
/* PCV:IGS14_2215 OL/AL:FES2004  NONE     YN ORB:CoN CLK:CoN
*  2022 07 15  8 30  0.00000000
PC06 -14422.065601  39391.165699  -5308.377591    397.770253
PC07  -1524.872674  32290.826047 -26944.602894   -431.546127
PC08 -12707.224367  21075.329041  34173.777072    404.771715
PC09 -10675.281932  39045.933937 -12310.272387   -927.258764
PC10   4642.914842  34373.066084 -23341.912187    118.308860
PC11 -14063.631866  23130.359319  -6643.592809    475.472045
PC12 -17424.579684   7735.281835 -20342.724819   -576.662338
PC13  -6889.932308  22847.852755  34834.729192     24.476471
PC14  -7901.431029  14631.061161  22419.929488    542.243066
PC16 -16029.975818  39040.295243  -2678.298677    143.109917
PC19   -984.025014 -20901.357650 -18451.768535   -213.588658
PC20  13991.851170  -7680.843623 -22876.446906   -963.911743
PC21 -21567.768876 -11148.619006  13797.278011   -681.434922
PC22 -16001.094073 -22662.118256  -3177.146337   -962.851600
PC23  11687.811901  13635.333248 -21346.444746   -945.639352
PC24 -25405.477429   9250.041216  -6867.525997   -967.788295
PC25  -8366.833706  16741.149189 -20696.972747   -707.361223
PC26 -26302.763046  -1625.903944   9121.602103    709.308580
PC27  15986.095966   2295.308768  22732.617268    754.485270
PC28   6013.362855  20010.044288  18492.531263     90.187283
PC29   7104.354096 -26842.231207  -2811.902208    581.916567
PC30  16549.516903 -17072.348127  14583.472934    501.096437
PC32  21639.438123  11028.955023 -13716.262189   -972.544791
PC33    954.434458  20843.164257  18524.382670   -169.857151
PC34 -16350.504821  17965.629136 -13767.233656   -358.464277
PC35  -5972.756242 -20678.764995 -17758.211316    366.633657
PC36   9366.909293 -16499.626019  20494.333187   -973.269871
PC37  25818.785432   3032.105468 -10150.042004   -917.176181
PC38 -20419.243332  22337.710507  29281.951530     10.239655
PC39 -17381.654666  38346.371514   3716.108434     -0.068254
PC40  -4976.319110  27999.523999 -31058.026232     -0.604969
PC41  15719.699898  22758.003725   3734.133439    -81.985507
PC42 -14824.618755   6663.671892  22728.858549   -953.637822
PC43  -7689.397986  26755.349913   2068.429142      3.022240
PC44 -16153.594457  -1965.676323 -22688.400557    724.608378
PC45 -11995.869590 -13404.130227  21338.752238    809.393372
PC46  24642.924823 -10128.401624   8367.797391   -432.828123
PE01  27781.724464  10212.973387    269.959525   -515.486905
PE02 -27811.388597 -10106.485799   -430.633475    312.055012
PE03 -17255.506992 -10683.196855  21554.491692   -579.174112
PE04  14543.366362 -11422.020191 -23104.458178  -1071.786117
PE05  -9865.879253 -26943.783720   7288.030036   -162.815770
PE07  -3158.119246  27290.397583  11012.787807   -687.659892
PE08 -14313.819722  11618.154237  23159.514849   -563.935846
PE09   2987.578381 -27311.313296 -11031.464931   -588.214476
PE10  20717.595618 -20799.848153  -3832.947085   -500.661282
PE11  13335.963301 -22695.665818 -13543.956269   3003.734803
PE12  24466.282793 -15579.108968   5859.807441    -63.024280
PE13 -13947.532406  22686.785527  12918.105891    429.816200
PE14 -19752.525789  -9130.069180 -23716.129024  -1778.596093
PE15 -24457.418532  15540.332610  -6051.309076    733.156666
PE18  15435.753716  -2935.390604  18541.371720  -1212.116185
PE19  16707.652254  13391.351675 -20428.673830  -5088.646826
PE21  16983.270133  18059.004559 -16168.813656   -746.004711
PE24   5616.170710 -15746.042688  24419.481953   -725.817970
PE25 -16716.418161 -18121.281593  16391.177972   -581.116723
PE26   5629.324567  16005.821059  24248.027112  -1378.980915
PE27  -4275.289976  16163.076460 -24418.552390   -345.200164
PE30 -23444.897169   4060.921117 -17604.988532   -673.679536
PE31  22825.125736  -4785.133283  18240.227111   -499.949187
PE33  20486.801677    730.415517  21345.687355   -454.691404
PE34 -20593.922456   -541.790362 -21264.894483   -485.936636
PE36  -4672.370471 -16459.716108 -24159.204969   -402.422285
PG01   7881.242062 -18688.110346 -17266.485499    321.103123
PG03  -1551.037497 -16542.896314 -20864.841517   -307.576910
PG04   1817.587335 -26173.247527  -3795.049122   -145.696864
PG05 -13305.721441   9851.325109  20628.307797    -89.197620
PG06 -22103.016279   3232.376119 -14370.494596    385.626427
PG07  -8763.475369 -12954.982511  21879.353268    319.222492
PG08   6024.392877 -22940.575412  11543.347537    -76.261771
PG09  -6861.588830 -24742.445253   6659.111598   -318.862725
PG10  24066.135270  11616.030700   -224.544150   -492.445107
PG11 -23557.439431  11988.680345  -2454.611678    -10.719916
PG12  -2522.419090  15686.967747 -21566.744696   -246.679933
PG13 -12871.355999  15408.033020  17139.945539    348.767387
PG14 -23115.678943 -13167.611851    844.637116   -111.799536
PG15  -3604.210643  23585.542319  10915.249699    -45.290797
PG16  18597.273428  -3580.682538  18533.259410   -515.420049
PG17 -12721.748756 -13120.300289 -18820.297410    637.050349
PG18   8106.765909  12587.861457  21927.053979    112.794136
PG19 -14756.308153  -3553.942787 -22067.360373    183.944173
PG20 -22504.168055   3311.278836  13524.894676    503.080634
PG21  15401.054787 -19365.530826  -7999.826769    161.102920
PG22  14996.980608    245.464325 -21502.441112    292.647823
PG23  18878.970854  16016.649040   9761.164383    -32.987911
PG24 -10131.976734  20594.394088 -13308.368465    196.493003
PG25  11959.063630  18130.506503 -15755.023635    349.356770
PG26  24391.006294   1833.711901  10645.074033    218.310571
PG27  12695.818466 -11885.066383  19740.183249    220.686642
PG28 -23714.257596  -8426.609144  -7597.363472    334.531976
PG29   4617.992809  25079.042843   7232.292333   -533.705578
PG30 -17816.708832  -5300.590757  19151.194890   -534.015428
PG31  23459.984685  -4712.139813 -12145.064590   -185.816871
PG32  14630.370540   9918.226791 -19732.901664   -176.748381
PJ02 -29118.362068  14602.171226 -22208.821264     -1.712721
PJ03 -23949.657843  33865.945225  -2576.603961     -0.135772
PR01 -14708.837429  -6154.824592  19917.849638     11.510976
PR02  -4776.127643  12549.130926  21744.584668    524.168606
PR03   7030.523361  22406.264892  10072.613514     60.243207
PR04  14587.988339  19714.561619  -7003.944219    150.709953
PR05  14192.571137   6269.366247 -20242.443035     96.261895
PR07  -7492.922395 -22509.418094  -9272.740424     37.884061
PR08 -14762.890397 -19499.341980   7258.608618    -66.207092
PR09  16680.645928  -8644.272045  17234.098112     65.868386
PR11 -18208.830552  -7641.657519  16170.601775     33.243943
PR12 -25465.013172    386.945994  -1271.821645     19.303365
PR13 -17937.170008   7880.525316 -16345.262425    -24.628672
PR14   1427.895371  11110.247435 -22898.633995     24.875305
PR15  18837.407315   7597.732940 -15400.770302     94.677918
PR17  -6139.780097  21268.864977  12634.876185    543.650064
PR18   5219.455476  10811.358845  22520.193538     32.924440
PR19  13723.797934  -3855.153700  21147.423822   -196.366940
PR20  15594.148733 -19422.573676   5412.955472    -74.619461
PR21   5311.581440 -20713.144942 -13939.300195   -317.539787
PR24 -14987.452674  20092.267601  -4666.804016    103.664820
EOF
